STARLINK-36393          
1 67859U 26034K   26066.63862513  .00397325  00000+0  19123-2 0  9990
2 67859  53.1592 221.5556 0000735  36.6150 323.4922 15.81019991  3613
STARLINK-35873          
1 67860U 26034L   26066.63787416  .00394804  00000+0  19002-2 0  9995
2 67860  53.1588 221.5506 0000341  55.8786 304.2269 15.81025845  3645
STARLINK-36325          
1 67861U 26034M   26066.63712156  .00347997  00000+0  16858-2 0  9992
2 67861  53.1591 221.5458 0001343  22.3735 337.7346 15.81011755  3611
STARLINK-36332          
1 67862U 26034N   26066.63636920  .00395253  00000+0  19007-2 0  9994
2 67862  53.1587 221.5409 0000652 127.7450 232.3633 15.81044359  3614
STARLINK-36835          
1 67863U 26034P   26066.63562587  .00418325  00000+0  20072-2 0  9992
2 67863  53.1595 221.5349 0002266   3.5320 356.5718 15.81032862  3616
STARLINK-36831          
1 67864U 26034Q   26066.63487713  .00607997  00000+0  28570-2 0  9996
2 67864  53.1591 221.5296 0001296  42.4147 317.6976 15.80989273  3615
STARLINK-36738          
1 67865U 26034R   26066.63412549  .00561913  00000+0  26553-2 0  9998
2 67865  53.1593 221.5248 0001360 357.7779   2.3237 15.80987835  3610
STARLINK-36780          
1 67866U 26034S   26066.63337517  .00283947  00000+0  13881-2 0  9998
2 67866  53.1597 221.5185 0000976  70.1914 289.9214 15.80985667  3613
STARLINK-36761          
1 67867U 26034T   26066.63262582  .00583901  00000+0  27522-2 0  9998
2 67867  53.1598 221.5139 0001147  34.0883 326.0213 15.80984756  3619
STARLINK-36762          
1 67868U 26034U   26066.63187391  .00472508  00000+0  22515-2 0  9990
2 67868  53.1594 221.5094 0002639 348.1203  11.9757 15.81041484  3614
STARLINK-36779          
1 67869U 26034V   26066.63112141  .00481818  00000+0  22906-2 0  9990
2 67869  53.1594 221.5039 0001326   6.9661 353.1380 15.81066096  3612
STARLINK-36770          
1 67870U 26034W   26066.62962060  .00470322  00000+0  22394-2 0  9993
2 67870  53.1596 221.4933 0001673 344.5014  15.5958 15.81063329  3612
STARLINK-36769          
1 67871U 26034X   26066.63038454  .00399106  00000+0  19240-2 0  9992
2 67871  53.1596 221.4989 0001492 351.9779   8.1220 15.80981408  3619
STARLINK-36786          
1 67872U 26034Y   26066.62887140  .00321342  00000+0  15619-2 0  9999
2 67872  53.1596 221.4886 0001161  36.6410 323.4692 15.81009529  3610
STARLINK-36783          
1 67873U 26034Z   26066.62812238  .00337145  00000+0  16357-2 0  9994
2 67873  53.1595 221.4829 0000986  38.0814 322.0278 15.81007954  3610
STARLINK-36730          
1 67874U 26034AA  26066.62737311  .00413652  00000+0  19865-2 0  9998
2 67874  53.1595 221.4783 0001025  41.8885 318.2216 15.81025092  3617
