[{"OBJECT_NAME":"STARLINK-36393","OBJECT_ID":"2026-034K","EPOCH":"2026-03-07T15:19:37.211232","MEAN_MOTION":15.81019991,"ECCENTRICITY":7.35e-5,"INCLINATION":53.1592,"RA_OF_ASC_NODE":221.5556,"ARG_OF_PERICENTER":36.615,"MEAN_ANOMALY":323.4922,"EPHEMERIS_TYPE":0,"CLASSIFICATION_TYPE":"U","NORAD_CAT_ID":67859,"ELEMENT_SET_NO":999,"REV_AT_EPOCH":361,"BSTAR":0.0019123298,"MEAN_MOTION_DOT":0.00397325,"MEAN_MOTION_DDOT":0},{"OBJECT_NAME":"STARLINK-35873","OBJECT_ID":"2026-034L","EPOCH":"2026-03-07T15:18:32.327424","MEAN_MOTION":15.81025845,"ECCENTRICITY":3.413e-5,"INCLINATION":53.1588,"RA_OF_ASC_NODE":221.5506,"ARG_OF_PERICENTER":55.8786,"MEAN_ANOMALY":304.2269,"EPHEMERIS_TYPE":0,"CLASSIFICATION_TYPE":"U","NORAD_CAT_ID":67860,"ELEMENT_SET_NO":999,"REV_AT_EPOCH":364,"BSTAR":0.0019001837,"MEAN_MOTION_DOT":0.00394804,"MEAN_MOTION_DDOT":0},{"OBJECT_NAME":"STARLINK-36325","OBJECT_ID":"2026-034M","EPOCH":"2026-03-07T15:17:27.302784","MEAN_MOTION":15.81011755,"ECCENTRICITY":0.00013433,"INCLINATION":53.1591,"RA_OF_ASC_NODE":221.5458,"ARG_OF_PERICENTER":22.3735,"MEAN_ANOMALY":337.7346,"EPHEMERIS_TYPE":0,"CLASSIFICATION_TYPE":"U","NORAD_CAT_ID":67861,"ELEMENT_SET_NO":999,"REV_AT_EPOCH":361,"BSTAR":0.0016857728,"MEAN_MOTION_DOT":0.00347997,"MEAN_MOTION_DDOT":0},{"OBJECT_NAME":"STARLINK-36332","OBJECT_ID":"2026-034N","EPOCH":"2026-03-07T15:16:22.298880","MEAN_MOTION":15.81044359,"ECCENTRICITY":6.525e-5,"INCLINATION":53.1587,"RA_OF_ASC_NODE":221.5409,"ARG_OF_PERICENTER":127.745,"MEAN_ANOMALY":232.3633,"EPHEMERIS_TYPE":0,"CLASSIFICATION_TYPE":"U","NORAD_CAT_ID":67862,"ELEMENT_SET_NO":999,"REV_AT_EPOCH":361,"BSTAR":0.00190069,"MEAN_MOTION_DOT":0.00395253,"MEAN_MOTION_DDOT":0},{"OBJECT_NAME":"STARLINK-36835","OBJECT_ID":"2026-034P","EPOCH":"2026-03-07T15:15:18.075168","MEAN_MOTION":15.81032862,"ECCENTRICITY":0.00022664,"INCLINATION":53.1595,"RA_OF_ASC_NODE":221.5349,"ARG_OF_PERICENTER":3.532,"MEAN_ANOMALY":356.5718,"EPHEMERIS_TYPE":0,"CLASSIFICATION_TYPE":"U","NORAD_CAT_ID":67863,"ELEMENT_SET_NO":999,"REV_AT_EPOCH":361,"BSTAR":0.0020072306,"MEAN_MOTION_DOT":0.00418325,"MEAN_MOTION_DDOT":0},{"OBJECT_NAME":"STARLINK-36831","OBJECT_ID":"2026-034Q","EPOCH":"2026-03-07T15:14:13.384032","MEAN_MOTION":15.80989273,"ECCENTRICITY":0.0001296,"INCLINATION":53.1591,"RA_OF_ASC_NODE":221.5296,"ARG_OF_PERICENTER":42.4147,"MEAN_ANOMALY":317.6976,"EPHEMERIS_TYPE":0,"CLASSIFICATION_TYPE":"U","NORAD_CAT_ID":67864,"ELEMENT_SET_NO":999,"REV_AT_EPOCH":361,"BSTAR":0.0028570081,"MEAN_MOTION_DOT":0.00607997,"MEAN_MOTION_DDOT":0},{"OBJECT_NAME":"STARLINK-36738","OBJECT_ID":"2026-034R","EPOCH":"2026-03-07T15:13:08.442336","MEAN_MOTION":15.80987835,"ECCENTRICITY":0.00013601,"INCLINATION":53.1593,"RA_OF_ASC_NODE":221.5248,"ARG_OF_PERICENTER":357.7779,"MEAN_ANOMALY":2.3237,"EPHEMERIS_TYPE":0,"CLASSIFICATION_TYPE":"U","NORAD_CAT_ID":67865,"ELEMENT_SET_NO":999,"REV_AT_EPOCH":361,"BSTAR":0.0026553029,"MEAN_MOTION_DOT":0.00561913,"MEAN_MOTION_DDOT":0},{"OBJECT_NAME":"STARLINK-36780","OBJECT_ID":"2026-034S","EPOCH":"2026-03-07T15:12:03.614688","MEAN_MOTION":15.80985667,"ECCENTRICITY":9.766e-5,"INCLINATION":53.1597,"RA_OF_ASC_NODE":221.5185,"ARG_OF_PERICENTER":70.1914,"MEAN_ANOMALY":289.9214,"EPHEMERIS_TYPE":0,"CLASSIFICATION_TYPE":"U","NORAD_CAT_ID":67866,"ELEMENT_SET_NO":999,"REV_AT_EPOCH":361,"BSTAR":0.0013881341,"MEAN_MOTION_DOT":0.00283947,"MEAN_MOTION_DDOT":0},{"OBJECT_NAME":"STARLINK-36761","OBJECT_ID":"2026-034T","EPOCH":"2026-03-07T15:10:58.870848","MEAN_MOTION":15.80984756,"ECCENTRICITY":0.0001147,"INCLINATION":53.1598,"RA_OF_ASC_NODE":221.5139,"ARG_OF_PERICENTER":34.0883,"MEAN_ANOMALY":326.0213,"EPHEMERIS_TYPE":0,"CLASSIFICATION_TYPE":"U","NORAD_CAT_ID":67867,"ELEMENT_SET_NO":999,"REV_AT_EPOCH":361,"BSTAR":0.002752242,"MEAN_MOTION_DOT":0.00583901,"MEAN_MOTION_DDOT":0},{"OBJECT_NAME":"STARLINK-36762","OBJECT_ID":"2026-034U","EPOCH":"2026-03-07T15:09:53.905824","MEAN_MOTION":15.81041484,"ECCENTRICITY":0.0002639,"INCLINATION":53.1594,"RA_OF_ASC_NODE":221.5094,"ARG_OF_PERICENTER":348.1203,"MEAN_ANOMALY":11.9757,"EPHEMERIS_TYPE":0,"CLASSIFICATION_TYPE":"U","NORAD_CAT_ID":67868,"ELEMENT_SET_NO":999,"REV_AT_EPOCH":361,"BSTAR":0.0022515364,"MEAN_MOTION_DOT":0.00472508,"MEAN_MOTION_DDOT":0},{"OBJECT_NAME":"STARLINK-36779","OBJECT_ID":"2026-034V","EPOCH":"2026-03-07T15:08:48.889824","MEAN_MOTION":15.81066096,"ECCENTRICITY":0.00013268,"INCLINATION":53.1594,"RA_OF_ASC_NODE":221.5039,"ARG_OF_PERICENTER":6.9661,"MEAN_ANOMALY":353.138,"EPHEMERIS_TYPE":0,"CLASSIFICATION_TYPE":"U","NORAD_CAT_ID":67869,"ELEMENT_SET_NO":999,"REV_AT_EPOCH":361,"BSTAR":0.002290617,"MEAN_MOTION_DOT":0.00481818,"MEAN_MOTION_DDOT":0},{"OBJECT_NAME":"STARLINK-36770","OBJECT_ID":"2026-034W","EPOCH":"2026-03-07T15:06:39.219840","MEAN_MOTION":15.81063329,"ECCENTRICITY":0.00016733,"INCLINATION":53.1596,"RA_OF_ASC_NODE":221.4933,"ARG_OF_PERICENTER":344.5014,"MEAN_ANOMALY":15.5958,"EPHEMERIS_TYPE":0,"CLASSIFICATION_TYPE":"U","NORAD_CAT_ID":67870,"ELEMENT_SET_NO":999,"REV_AT_EPOCH":361,"BSTAR":0.0022394117,"MEAN_MOTION_DOT":0.00470322,"MEAN_MOTION_DDOT":0},{"OBJECT_NAME":"STARLINK-36769","OBJECT_ID":"2026-034X","EPOCH":"2026-03-07T15:07:45.224256","MEAN_MOTION":15.80981408,"ECCENTRICITY":0.00014921,"INCLINATION":53.1596,"RA_OF_ASC_NODE":221.4989,"ARG_OF_PERICENTER":351.9779,"MEAN_ANOMALY":8.122,"EPHEMERIS_TYPE":0,"CLASSIFICATION_TYPE":"U","NORAD_CAT_ID":67871,"ELEMENT_SET_NO":999,"REV_AT_EPOCH":361,"BSTAR":0.0019240031,"MEAN_MOTION_DOT":0.00399106,"MEAN_MOTION_DDOT":0},{"OBJECT_NAME":"STARLINK-36786","OBJECT_ID":"2026-034Y","EPOCH":"2026-03-07T15:05:34.488960","MEAN_MOTION":15.81009529,"ECCENTRICITY":0.00011618,"INCLINATION":53.1596,"RA_OF_ASC_NODE":221.4886,"ARG_OF_PERICENTER":36.641,"MEAN_ANOMALY":323.4692,"EPHEMERIS_TYPE":0,"CLASSIFICATION_TYPE":"U","NORAD_CAT_ID":67872,"ELEMENT_SET_NO":999,"REV_AT_EPOCH":361,"BSTAR":0.001561931,"MEAN_MOTION_DOT":0.00321342,"MEAN_MOTION_DDOT":0},{"OBJECT_NAME":"STARLINK-36783","OBJECT_ID":"2026-034Z","EPOCH":"2026-03-07T15:04:29.773632","MEAN_MOTION":15.81007954,"ECCENTRICITY":9.869e-5,"INCLINATION":53.1595,"RA_OF_ASC_NODE":221.4829,"ARG_OF_PERICENTER":38.0814,"MEAN_ANOMALY":322.0278,"EPHEMERIS_TYPE":0,"CLASSIFICATION_TYPE":"U","NORAD_CAT_ID":67873,"ELEMENT_SET_NO":999,"REV_AT_EPOCH":361,"BSTAR":0.001635651,"MEAN_MOTION_DOT":0.00337145,"MEAN_MOTION_DDOT":0},{"OBJECT_NAME":"STARLINK-36730","OBJECT_ID":"2026-034AA","EPOCH":"2026-03-07T15:03:25.036704","MEAN_MOTION":15.81025092,"ECCENTRICITY":0.00010258,"INCLINATION":53.1595,"RA_OF_ASC_NODE":221.4783,"ARG_OF_PERICENTER":41.8885,"MEAN_ANOMALY":318.2216,"EPHEMERIS_TYPE":0,"CLASSIFICATION_TYPE":"U","NORAD_CAT_ID":67874,"ELEMENT_SET_NO":999,"REV_AT_EPOCH":361,"BSTAR":0.0019865435,"MEAN_MOTION_DOT":0.00413652,"MEAN_MOTION_DDOT":0}]
